[{"OBJECT_NAME":"STARLINK-1972","OBJECT_ID":"2021-012H","EPOCH":"2026-03-09T23:15:16.577568","MEAN_MOTION":15.46891946,"ECCENTRICITY":0.00038028,"INCLINATION":53.0542,"RA_OF_ASC_NODE":323.2416,"ARG_OF_PERICENTER":161.9616,"MEAN_ANOMALY":198.1527,"EPHEMERIS_TYPE":0,"CLASSIFICATION_TYPE":"U","NORAD_CAT_ID":47627,"ELEMENT_SET_NO":999,"REV_AT_EPOCH":28150,"BSTAR":0.001273526,"MEAN_MOTION_DOT":0.00065229,"MEAN_MOTION_DDOT":0},{"OBJECT_NAME":"FLOCK 4Q-27","OBJECT_ID":"2023-174AC","EPOCH":"2026-03-09T18:08:56.455008","MEAN_MOTION":15.49038169,"ECCENTRICITY":0.00065991,"INCLINATION":97.3847,"RA_OF_ASC_NODE":156.6778,"ARG_OF_PERICENTER":148.7525,"MEAN_ANOMALY":211.412,"EPHEMERIS_TYPE":0,"CLASSIFICATION_TYPE":"U","NORAD_CAT_ID":58282,"ELEMENT_SET_NO":999,"REV_AT_EPOCH":13033,"BSTAR":0.00055152381,"MEAN_MOTION_DOT":0.00029883,"MEAN_MOTION_DDOT":0}]
